start=new Date('2021-10-22T00:00:00.000Z').valueOf();
sats=[{"TIME_SYSTEM":"UTC","EPHEMERIS_TYPE":"0","RA_OF_ASC_NODE":"48.7554","REV_AT_EPOCH":"7758","TLE_LINE1":"1 45666U 20035K   21294.81100209 -.00000514  00000-0 -15651-4 0  9990","MEAN_MOTION_DOT":"-0.00000514","APOAPSIS":"548.138","ARG_OF_PERICENTER":"89.2072","TLE_LINE2":"2 45666  53.0561  48.7554 0001288  89.2072 270.9064 15.06389498 77587","MEAN_MOTION":"15.06389498","DECAY_DATE":null,"PERIAPSIS":"546.354","ELEMENT_SET_NO":"999","SEMIMAJOR_AXIS":"6925.381","LAUNCH_DATE":"2020-06-04","EPOCH":"2021-10-21T19:27:50.580576","RCS_SIZE":"LARGE","ECCENTRICITY":"0.00012880","PERIOD":"95.593","CENTER_NAME":"EARTH","OBJECT_NAME":"STARLINK-1449","OBJECT_ID":"2020-035K","MEAN_ANOMALY":"270.9064","SITE":"AFETR","FILE":"3176920","GP_ID":"187838194","MEAN_MOTION_DDOT":"0.0000000000000","CLASSIFICATION_TYPE":"U","OBJECT_TYPE":"PAYLOAD","COUNTRY_CODE":"US","NORAD_CAT_ID":"45666","MEAN_ELEMENT_THEORY":"SGP4","REF_FRAME":"TEME","BSTAR":"-0.00001565100000","INCLINATION":"53.0561"},{"ECCENTRICITY":"0.00011320","RCS_SIZE":"LARGE","OBJECT_NAME":"STARLINK-1450","PERIOD":"95.593","CENTER_NAME":"EARTH","REV_AT_EPOCH":"7758","TLE_LINE1":"1 45667U 20035L   21294.80826222 -.00000437  00000-0 -10460-4 0  9997","APOAPSIS":"548.036","MEAN_MOTION_DOT":"-0.00000437","RA_OF_ASC_NODE":"48.7688","TIME_SYSTEM":"UTC","EPHEMERIS_TYPE":"0","ELEMENT_SET_NO":"999","PERIAPSIS":"546.468","EPOCH":"2021-10-21T19:23:53.855808","LAUNCH_DATE":"2020-06-04","SEMIMAJOR_AXIS":"6925.387","TLE_LINE2":"2 45667  53.0551  48.7688 0001132 100.7930 259.3186 15.06387535 77581","MEAN_MOTION":"15.06387535","ARG_OF_PERICENTER":"100.7930","DECAY_DATE":null,"OBJECT_TYPE":"PAYLOAD","NORAD_CAT_ID":"45667","COUNTRY_CODE":"US","CLASSIFICATION_TYPE":"U","INCLINATION":"53.0551","BSTAR":"-0.00001046000000","MEAN_ELEMENT_THEORY":"SGP4","REF_FRAME":"TEME","MEAN_ANOMALY":"259.3186","FILE":"3176920","SITE":"AFETR","OBJECT_ID":"2020-035L","MEAN_MOTION_DDOT":"0.0000000000000","GP_ID":"187837945"},{"MEAN_ELEMENT_THEORY":"SGP4","REF_FRAME":"TEME","INCLINATION":"53.0567","BSTAR":"-0.00000200740000","CLASSIFICATION_TYPE":"U","OBJECT_TYPE":"PAYLOAD","NORAD_CAT_ID":"45668","COUNTRY_CODE":"US","GP_ID":"187839196","MEAN_MOTION_DDOT":"0.0000000000000","OBJECT_ID":"2020-035M","MEAN_ANOMALY":"254.1234","FILE":"3176920","SITE":"AFETR","PERIOD":"95.593","CENTER_NAME":"EARTH","OBJECT_NAME":"STARLINK-1451","RCS_SIZE":"LARGE","ECCENTRICITY":"0.00012570","MEAN_MOTION":"15.06392082","TLE_LINE2":"2 45668  53.0567  48.8937 0001257 105.9894 254.1234 15.06392082 77592","ARG_OF_PERICENTER":"105.9894","DECAY_DATE":null,"ELEMENT_SET_NO":"999","PERIAPSIS":"546.367","SEMIMAJOR_AXIS":"6925.373","LAUNCH_DATE":"2020-06-04","EPOCH":"2021-10-21T18:46:44.494752","RA_OF_ASC_NODE":"48.8937","TIME_SYSTEM":"UTC","EPHEMERIS_TYPE":"0","REV_AT_EPOCH":"7759","TLE_LINE1":"1 45668U 20035M   21294.78245943 -.00000311  00000-0 -20074-5 0  9994","APOAPSIS":"548.108","MEAN_MOTION_DOT":"-0.00000311"},{"NORAD_CAT_ID":"45669","COUNTRY_CODE":"US","OBJECT_TYPE":"PAYLOAD","CLASSIFICATION_TYPE":"U","INCLINATION":"53.0553","BSTAR":"0.00002742900000","REF_FRAME":"TEME","MEAN_ELEMENT_THEORY":"SGP4","FILE":"3176920","SITE":"AFETR","MEAN_ANOMALY":"252.3378","OBJECT_ID":"2020-035N","MEAN_MOTION_DDOT":"0.0000000000000","GP_ID":"187839441","ECCENTRICITY":"0.00013090","RCS_SIZE":"LARGE","OBJECT_NAME":"STARLINK-1452","CENTER_NAME":"EARTH","PERIOD":"95.593","APOAPSIS":"548.154","MEAN_MOTION_DOT":"0.00000127","TLE_LINE1":"1 45669U 20035N   21294.62764750  .00000127  00000-0  27429-4 0  9993","REV_AT_EPOCH":"7756","RA_OF_ASC_NODE":"49.5798","TIME_SYSTEM":"UTC","EPHEMERIS_TYPE":"0","EPOCH":"2021-10-21T15:03:48.744000","LAUNCH_DATE":"2020-06-04","SEMIMAJOR_AXIS":"6925.383","ELEMENT_SET_NO":"999","PERIAPSIS":"546.341","DECAY_DATE":null,"ARG_OF_PERICENTER":"107.7754","TLE_LINE2":"2 45669  53.0553  49.5798 0001309 107.7754 252.3378 15.06388857 77565","MEAN_MOTION":"15.06388857"},{"RCS_SIZE":"LARGE","ECCENTRICITY":"0.00016980","CENTER_NAME":"EARTH","PERIOD":"95.593","OBJECT_NAME":"STARLINK-1453","TIME_SYSTEM":"UTC","EPHEMERIS_TYPE":"0","RA_OF_ASC_NODE":"19.9119","APOAPSIS":"548.452","MEAN_MOTION_DOT":"0.00000925","TLE_LINE1":"1 45670U 20035P   21294.55301268  .00000925  00000-0  81033-4 0  9995","REV_AT_EPOCH":"7786","DECAY_DATE":null,"ARG_OF_PERICENTER":"105.4638","TLE_LINE2":"2 45670  53.0549  19.9119 0001698 105.4638 254.6539 15.06379549 77862","MEAN_MOTION":"15.06379549","LAUNCH_DATE":"2020-06-04","EPOCH":"2021-10-21T13:16:20.295552","SEMIMAJOR_AXIS":"6925.411","PERIAPSIS":"546.100","ELEMENT_SET_NO":"999","CLASSIFICATION_TYPE":"U","COUNTRY_CODE":"US","NORAD_CAT_ID":"45670","OBJECT_TYPE":"PAYLOAD","REF_FRAME":"TEME","MEAN_ELEMENT_THEORY":"SGP4","BSTAR":"0.00008103300000","INCLINATION":"53.0549","OBJECT_ID":"2020-035P","SITE":"AFETR","FILE":"3176553","MEAN_ANOMALY":"254.6539","GP_ID":"187809549","MEAN_MOTION_DDOT":"0.0000000000000"},{"MEAN_MOTION_DDOT":"0.0000000000000","GP_ID":"187838445","MEAN_ANOMALY":"267.6217","SITE":"AFETR","FILE":"3176920","OBJECT_ID":"2020-035Q","BSTAR":"0.00001347200000","INCLINATION":"53.0553","MEAN_ELEMENT_THEORY":"SGP4","REF_FRAME":"TEME","OBJECT_TYPE":"PAYLOAD","COUNTRY_CODE":"US","NORAD_CAT_ID":"45671","CLASSIFICATION_TYPE":"U","ELEMENT_SET_NO":"999","PERIAPSIS":"546.452","LAUNCH_DATE":"2020-06-04","SEMIMAJOR_AXIS":"6925.344","EPOCH":"2021-10-21T16:44:39.601248","ARG_OF_PERICENTER":"92.4897","TLE_LINE2":"2 45671  53.0553  49.2642 0001094  92.4897 267.6217 15.06401360 77568","MEAN_MOTION":"15.06401360","DECAY_DATE":null,"TLE_LINE1":"1 45671U 20035Q   21294.69768057 -.00000081  00000-0  13472-4 0  9990","REV_AT_EPOCH":"7756","APOAPSIS":"547.967","MEAN_MOTION_DOT":"-0.00000081","TIME_SYSTEM":"UTC","EPHEMERIS_TYPE":"0","RA_OF_ASC_NODE":"49.2642","OBJECT_NAME":"STARLINK-1454","PERIOD":"95.592","CENTER_NAME":"EARTH","ECCENTRICITY":"0.00010940","RCS_SIZE":"LARGE"},{"MEAN_ELEMENT_THEORY":"SGP4","REF_FRAME":"TEME","BSTAR":"0.00000265090000","INCLINATION":"53.0557","CLASSIFICATION_TYPE":"U","OBJECT_TYPE":"PAYLOAD","COUNTRY_CODE":"US","NORAD_CAT_ID":"45672","GP_ID":"187815667","MEAN_MOTION_DDOT":"0.0000000000000","OBJECT_ID":"2020-035R","MEAN_ANOMALY":"255.2101","SITE":"AFETR","FILE":"3176708","PERIOD":"95.593","CENTER_NAME":"EARTH","OBJECT_NAME":"STARLINK-1455","RCS_SIZE":"LARGE","ECCENTRICITY":"0.00013860","TLE_LINE2":"2 45672  53.0557  20.1241 0001386 104.9042 255.2101 15.06384726 77551","MEAN_MOTION":"15.06384726","ARG_OF_PERICENTER":"104.9042","DECAY_DATE":null,"PERIAPSIS":"546.301","ELEMENT_SET_NO":"999","EPOCH":"2021-10-21T12:12:38.661984","LAUNCH_DATE":"2020-06-04","SEMIMAJOR_AXIS":"6925.395","EPHEMERIS_TYPE":"0","TIME_SYSTEM":"UTC","RA_OF_ASC_NODE":"20.1241","TLE_LINE1":"1 45672U 20035R   21294.50878081 -.00000242  00000-0  26509-5 0  9995","REV_AT_EPOCH":"7755","APOAPSIS":"548.220","MEAN_MOTION_DOT":"-0.00000242"},{"ELEMENT_SET_NO":"999","PERIAPSIS":"546.362","LAUNCH_DATE":"2020-06-04","EPOCH":"2021-10-21T07:32:39.197184","SEMIMAJOR_AXIS":"6925.383","MEAN_MOTION":"15.06388751","TLE_LINE2":"2 45673  53.0561  50.9947 0001280 100.0985 260.0149 15.06388751 77522","ARG_OF_PERICENTER":"100.0985","DECAY_DATE":null,"TLE_LINE1":"1 45673U 20035S   21294.31434256 -.00000474  00000-0 -12938-4 0  9995","REV_AT_EPOCH":"7752","APOAPSIS":"548.134","MEAN_MOTION_DOT":"-0.00000474","RA_OF_ASC_NODE":"50.9947","EPHEMERIS_TYPE":"0","TIME_SYSTEM":"UTC","OBJECT_NAME":"STARLINK-1456","PERIOD":"95.593","CENTER_NAME":"EARTH","ECCENTRICITY":"0.00012800","RCS_SIZE":"LARGE","MEAN_MOTION_DDOT":"0.0000000000000","GP_ID":"187809795","MEAN_ANOMALY":"260.0149","FILE":"3176553","SITE":"AFETR","OBJECT_ID":"2020-035S","INCLINATION":"53.0561","BSTAR":"-0.00001293800000","MEAN_ELEMENT_THEORY":"SGP4","REF_FRAME":"TEME","OBJECT_TYPE":"PAYLOAD","NORAD_CAT_ID":"45673","COUNTRY_CODE":"US","CLASSIFICATION_TYPE":"U"},{"RCS_SIZE":"LARGE","ECCENTRICITY":"0.00013270","PERIOD":"95.593","CENTER_NAME":"EARTH","OBJECT_NAME":"STARLINK-1457","EPHEMERIS_TYPE":"0","TIME_SYSTEM":"UTC","RA_OF_ASC_NODE":"49.7610","TLE_LINE1":"1 45674U 20035T   21294.58711173 -.00000844  00000-0 -37771-4 0  9994","REV_AT_EPOCH":"7753","MEAN_MOTION_DOT":"-0.00000844","APOAPSIS":"548.182","TLE_LINE2":"2 45674  53.0554  49.7610 0001327  95.8561 264.2579 15.06383864 77535","MEAN_MOTION":"15.06383864","ARG_OF_PERICENTER":"95.8561","DECAY_DATE":null,"ELEMENT_SET_NO":"999","PERIAPSIS":"546.344","LAUNCH_DATE":"2020-06-04","SEMIMAJOR_AXIS":"6925.398","EPOCH":"2021-10-21T14:05:26.453472","CLASSIFICATION_TYPE":"U","OBJECT_TYPE":"PAYLOAD","COUNTRY_CODE":"US","NORAD_CAT_ID":"45674","MEAN_ELEMENT_THEORY":"SGP4","REF_FRAME":"TEME","BSTAR":"-0.00003777100000","INCLINATION":"53.0554","OBJECT_ID":"2020-035T","MEAN_ANOMALY":"264.2579","SITE":"AFETR","FILE":"3176553","GP_ID":"187810049","MEAN_MOTION_DDOT":"0.0000000000000"},{"GP_ID":"187837946","MEAN_MOTION_DDOT":"0.0000000000000","OBJECT_ID":"2020-035U","MEAN_ANOMALY":"265.9049","FILE":"3176920","SITE":"AFETR","MEAN_ELEMENT_THEORY":"SGP4","REF_FRAME":"TEME","INCLINATION":"53.0560","BSTAR":"0.00006167000000","CLASSIFICATION_TYPE":"U","OBJECT_TYPE":"PAYLOAD","NORAD_CAT_ID":"45675","COUNTRY_CODE":"US","ARG_OF_PERICENTER":"94.2062","TLE_LINE2":"2 45675  53.0560  48.6283 0001065  94.2062 265.9049 15.06402988 77567","MEAN_MOTION":"15.06402988","DECAY_DATE":null,"PERIAPSIS":"546.467","ELEMENT_SET_NO":"999","EPOCH":"2021-10-21T20:11:38.637024","LAUNCH_DATE":"2020-06-04","SEMIMAJOR_AXIS":"6925.339","RA_OF_ASC_NODE":"48.6283","EPHEMERIS_TYPE":"0","TIME_SYSTEM":"UTC","TLE_LINE1":"1 45675U 20035U   21294.84141941  .00000637  00000-0  61670-4 0  9997","REV_AT_EPOCH":"7756","APOAPSIS":"547.942","MEAN_MOTION_DOT":"0.00000637","PERIOD":"95.592","CENTER_NAME":"EARTH","OBJECT_NAME":"STARLINK-1458","RCS_SIZE":"LARGE","ECCENTRICITY":"0.00010650"}];
